GLOBALSTAR M024         
1 25883U 99043A   26021.38978177 -.00000001  00000+0  22671-2 0  9993
2 25883  51.9986 248.2817 0002594  84.2400  86.7263 11.10166961139092
GLOBALSTAR M027         
1 25884U 99043B   26021.17834181 -.00000060  00000+0  12042-3 0  9994
2 25884  52.0249 332.9162 0021574 344.2540  15.7580 11.04372640165329
GLOBALSTAR M054         
1 25885U 99043C   26021.53792612 -.00000129  00000+0 -14723-2 0  9991
2 25885  52.0149  62.7672 0005075 189.9386 319.6960 11.39223466143933
GLOBALSTAR M053         
1 25886U 99043D   26021.42366123 -.00000070  00000+0 -31373-4 0  9991
2 25886  52.0007  22.2446 0003475  94.2032  76.3435 11.27669348144064
GLOBALSTAR M058         
1 25907U 99049A   26021.36276516 -.00000045  00000+0  52736-3 0  9996
2 25907  51.9924 246.5861 0002023 357.7006   2.3820 11.93207521567589
GLOBALSTAR M050         
1 25908U 99049B   26021.36672002 -.00000026  00000+0  70766-3 0  9999
2 25908  51.9968 237.9502 0010114 103.3560  67.8774 12.07465247174545
GLOBALSTAR M033         
1 25909U 99049C   26021.47445221  .00000071  00000+0  15668-2 0  9991
2 25909  51.9913  94.4094 0013822 355.7046   4.3680 12.20299510562398
GLOBALSTAR M055         
1 25910U 99049D   26021.46633171 -.00000046  00000+0  41149-3 0  9992
2 25910  52.0019  94.5483 0006954 219.3857 140.6489 12.29439556195135
